OBJECT_NAME,OBJECT_ID,EPOCH,MEAN_MOTION,ECCENTRICITY,INCLINATION,RA_OF_ASC_NODE,ARG_OF_PERICENTER,MEAN_ANOMALY,EPHEMERIS_TYPE,CLASSIFICATION_TYPE,NORAD_CAT_ID,ELEMENT_SET_NO,REV_AT_EPOCH,BSTAR,MEAN_MOTION_DOT,MEAN_MOTION_DDOT
RADUGA 1,1975-123A,2024-07-07T04:55:37.374816,1.00254002,.000669,4.6398,277.8738,245.6511,263.3598,0,U,8513,999,18769,0,-.1E-6,0
RADUGA 2,1976-092A,2024-07-07T18:40:39.002880,1.00294401,.0026483,5.3095,280.1443,18.7163,336.3562,0,U,9416,999,12222,0,-.32E-6,0
RADUGA 3,1977-071A,2024-07-07T18:51:25.616160,1.00319426,.0009017,5.9396,283.1445,259.9029,132.3010,0,U,10159,999,16994,0,-.339E-5,0
RADUGA 4,1978-073A,2024-07-07T06:34:52.145760,1.00207024,.0008348,6.5873,287.2123,19.1742,133.0074,0,U,10987,999,11248,0,.94E-6,0
RADUGA 5,1979-035A,2024-07-07T08:27:00.499104,1.00280349,.0006346,7.0703,290.3618,194.5003,12.6364,0,U,11343,999,12223,0,-.184E-5,0
RADUGA 6,1980-016A,2024-07-07T20:15:56.456352,1.00275421,.000252,7.4585,293.8599,226.2879,111.6506,0,U,11708,999,11503,0,.145E-5,0
RADUGA 7,1980-081A,2024-07-07T08:33:06.099840,1.00217865,.0009391,7.6652,296.0765,279.8443,36.3199,0,U,12003,999,11618,0,.124E-5,0
RADUGA 8,1981-027A,2024-07-08T02:53:59.525376,1.00354423,.0080871,8.0026,296.5103,250.3874,134.9950,0,U,12351,999,11541,0,-.53E-6,0
RADUGA 9,1981-069A,2024-07-07T23:40:26.421024,1.00249172,.0004303,8.2593,299.9535,173.3547,204.5066,0,U,12618,999,12122,0,.151E-5,0
RADUGA 10,1981-102A,2024-07-06T18:40:43.538880,1.00295463,.0005503,8.3632,301.0784,203.4784,138.5894,0,U,12897,999,11021,0,-.12E-5,0
RADUGA 11,1982-113A,2024-07-07T06:03:55.012320,0.97709093,.0039536,10.6153,316.1062,272.9765,92.5176,0,U,13669,999,11460,0,-.107E-5,0
RADUGA 12,1983-028A,2024-07-07T22:05:40.341120,1.00269220,.0001872,9.6661,311.6091,148.6854,222.6067,0,U,13974,999,16226,0,0,0
RADUGA 13,1983-088A,2024-07-07T08:31:38.693280,0.98173198,.0015747,10.9020,317.5700,60.0689,137.4145,0,U,14307,999,11197,0,-.57E-6,0
RADUGA 14,1984-016A,2024-07-07T20:54:42.790176,1.00289265,.0005337,9.9509,315.7245,160.2481,208.0326,0,U,14725,999,11097,0,-.184E-5,0
RADUGA 15,1984-063A,2024-07-07T13:17:55.353696,1.00304914,.0005847,10.0933,316.7330,184.0611,6.1503,0,U,15057,999,13396,0,.121E-5,0
RADUGA 16,1985-070A,2024-07-07T04:27:55.729152,1.00263767,.0002628,10.6616,321.5882,194.6036,166.1109,0,U,15946,999,11511,0,-.227E-5,0
RADUGA 17,1985-107A,2024-07-08T02:56:44.938176,1.00179416,.0015363,10.8156,323.0718,203.3241,166.3317,0,U,16250,999,14470,0,-.18E-6,0
RADUGA 18,1986-007A,2024-07-07T10:46:24.000096,0.98811381,.0074947,11.6739,325.8935,183.0363,175.1995,0,U,16497,999,13884,0,.31E-6,0
RADUGA 19,1986-082A,2024-07-06T23:41:55.707648,0.98459310,.0014335,12.2043,329.9886,170.0617,191.4872,0,U,17046,999,13592,0,-.15E-6,0
RADUGA 20,1987-028A,2024-07-06T23:25:14.369664,0.95960723,.0031004,14.2851,333.3437,155.6966,205.3378,0,U,17611,999,13150,0,-.84E-6,0
RADUGA 21,1987-100A,2024-07-07T07:43:16.453344,1.00211276,.0003362,12.3254,330.4030,163.4772,199.9161,0,U,18631,999,13397,0,-.286E-5,0
RADUGA 22,1988-095A,2024-07-07T13:20:55.804416,1.00344968,.0008537,12.4359,335.0008,168.2405,14.5349,0,U,19596,999,11453,0,.127E-5,0
RADUGA 23,1989-030A,2024-07-07T13:23:56.254272,1.00211670,.0022599,12.6307,336.8452,182.3552,10.0928,0,U,19928,999,12773,0,.118E-5,0
RADUGA-1 1,1989-048A,2024-07-07T16:38:42.755424,0.98710765,.0022389,13.4663,340.0234,135.8444,247.1151,0,U,20083,999,12426,0,-.168E-5,0
RADUGA 24,1989-098A,2024-07-07T10:12:53.079840,1.00224679,.0002572,13.2711,338.9219,193.8740,1.9111,0,U,20367,999,12585,0,-.286E-5,0
RADUGA 25,1990-016A,2024-07-07T10:45:42.720768,1.00373962,.0006485,13.0665,339.6978,171.5093,171.1796,0,U,20499,999,12578,0,-.7E-7,0
RADUGA 26,1990-112A,2024-07-07T11:44:10.852800,1.00283876,.0006687,13.4740,342.9639,121.4107,51.0700,0,U,21016,999,12314,0,.61E-6,0
RADUGA-1 2,1990-116A,2024-07-07T23:47:34.990080,1.00224074,.0008025,13.5128,343.0109,129.8085,231.6876,0,U,21038,999,12280,0,.18E-6,0
RADUGA 27,1991-014A,2024-07-07T08:31:38.693280,1.00183485,.0003576,14.0028,342.2638,138.9353,33.4604,0,U,21132,999,12219,0,-.317E-5,0
RADUGA 28,1991-087A,2024-07-07T08:34:09.068160,1.00323192,.0008138,13.8956,346.2457,152.5416,25.0495,0,U,21821,999,11920,0,-.373E-5,0
RADUGA 29,1993-013A,2024-07-07T11:47:41.377632,1.00161937,.0007009,14.2264,350.4005,147.2615,31.1828,0,U,22557,999,11456,0,-.13E-6,0
RADUGA 30,1993-062A,2024-07-07T11:51:19.421856,1.00261880,.000088,14.3375,352.4167,282.9275,267.3611,0,U,22836,999,3888,0,-.152E-5,0
RADUGA-1 3,1994-008A,2024-07-07T10:13:45.712128,1.00299573,.0004294,14.4538,353.5382,143.2087,40.4363,0,U,22981,999,11136,0,-.318E-5,0
RADUGA 31,1994-012A,2024-07-07T13:24:26.329248,1.00267247,.0005224,14.4201,353.5471,133.4698,44.0380,0,U,23010,999,11123,0,.102E-5,0
RADUGA 32,1994-087A,2024-07-07T11:51:19.421856,1.00264558,.0006581,14.4945,356.2942,218.3276,327.9326,0,U,23448,999,12576,0,-.152E-5,0
RADUGA-1 4,1999-010A,2024-07-07T13:26:56.704128,1.00206642,.0002276,15.4374,7.5021,232.8056,299.8543,0,U,25642,999,9283,0,.69E-6,0
RADUGA-1 5,2000-049A,2024-07-07T13:28:19.409664,1.00217405,.0004634,13.5569,13.1978,94.8866,77.4602,0,U,26477,999,8730,0,.41E-6,0
RADUGA-1 6,2001-045A,2024-07-07T22:18:19.734912,0.97744404,.0018154,13.9436,19.7013,182.7654,167.7291,0,U,26936,999,8164,0,-.108E-5,0
RADUGA-1 7,2004-010A,2024-07-08T03:10:54.556896,1.00366858,.0003557,12.8497,26.2372,189.2389,170.4215,0,U,28194,999,7429,0,.61E-6,0
RADUGA-1M 1,2007-058A,2024-07-07T09:41:40.911072,0.99400770,.0003166,8.5781,58.2686,44.7158,314.1956,0,U,32373,999,4533,0,-.228E-5,0
RADUGA-1 8,2009-010A,2024-07-07T09:37:55.348320,0.99830168,.0012299,10.7112,48.0807,20.2134,334.8520,0,U,34264,999,5608,0,-.261E-5,0
RADUGA-1M 2,2010-002A,2024-07-07T13:36:15.890112,1.00273159,.0001274,1.7742,88.2409,15.6042,111.2505,0,U,36358,999,4297,0,-.189E-5,0
RADUGA-1M 3,2013-062A,2024-07-07T06:29:43.876608,1.00271840,.0004038,4.1437,81.0410,236.6978,100.3836,0,U,39375,999,3898,0,.148E-5,0
